CORAL                   
1 67685U 98067YB  26044.23970080  .00041573  00000+0  73102-3 0  9992
2 67685  51.6299 193.1399 0012683 102.9085 257.3321 15.49978416   991
ISS OBJECT YC           
1 67686U 98067YC  26044.23924055  .00049739  00000+0  86945-3 0  9995
2 67686  51.6304 193.1388 0007814  77.4740 282.7122 15.50119870   995
LEOPARD                 
1 67687U 98067YD  26044.23993521  .00038992  00000+0  68901-3 0  9991
2 67687  51.6305 193.1421 0007880  79.7885 280.3992 15.49922863   916
ISS OBJECT YE           
1 67688U 98067YE  26044.23939048  .00044290  00000+0  77722-3 0  9995
2 67688  51.6307 193.1391 0007767  78.6015 281.5846 15.50061669   913
PRC TEST SPACECRAFT 4   
1 67689U 26024A   26044.24289225 -.00000018  00000+0  22285-4 0  9992
2 67689  49.9851 137.5297 0006186 265.9841  94.0393 14.91670688   934
CZ-2F R/B               
1 67690U 26024B   26043.68605831  .00010419  00000+0  20043-3 0  9990
2 67690  49.9859 139.9043 0177333 171.2576 189.1542 15.33223548   855
CZ-2F DEB               
1 67691U 26024C   26044.23332374  .00676233  10260-4  95621-3 0  9992
2 67691  49.9101 135.9568 0264462 179.9412 180.1635 15.63527774   943
CZ-2F DEB               
1 67692U 26024D   26043.47249242  .00008960  00000+0  18237-3 0  9999
2 67692  50.2497 141.4689 0244463 185.6574 174.1612 15.21014172   827
CZ-2F DEB               
1 67718U 26024E   26044.28779072  .00279870  00000+0  57498-2 0  9998
2 67718  50.3154 137.7103 0268004 184.1610 175.7117 15.14642579   926
CZ-2F DEB               
1 67719U 26024F   26044.29673638  .00211453  00000+0  54981-2 0  9998
2 67719  49.7902 138.6266 0339604 173.7875 186.7441 14.95744724   589
CZ-2F DEB               
1 67720U 26024G   26044.24076432  .00203991  00000+0  54463-2 0  9997
2 67720  49.8296 138.9952 0350432 170.2689 190.5275 14.93053066   892
2026-027A               
1 67746U 26027A   26044.30492779  .00009399  00000+0  47527-3 0  9991
2 67746  97.4867 173.5892 0009293 286.7475  73.2738 15.17225861   165
