CCSDS_OMM_VERS = 2.0
CREATION_DATE  = 
ORIGINATOR     = 

OBJECT_NAME    = CORAL
OBJECT_ID      = 1998-067YB
CENTER_NAME    = EARTH
REF_FRAME      = TEME
TIME_SYSTEM    = UTC
MEAN_ELEMENT_THEORY = SGP/SGP4

EPOCH          = 2026-02-13T05:45:10.149120
MEAN_MOTION    = 15.49978416
ECCENTRICITY   = .00126837
INCLINATION    = 51.6299
RA_OF_ASC_NODE = 193.1399
ARG_OF_PERICENTER = 102.9085
MEAN_ANOMALY   = 257.3321

EPHEMERIS_TYPE = 0
CLASSIFICATION_TYPE = U
NORAD_CAT_ID   = 67685
ELEMENT_SET_NO = 999
REV_AT_EPOCH   = 99
BSTAR          = .73101821E-3
MEAN_MOTION_DOT = .41573E-3
MEAN_MOTION_DDOT = 0

CCSDS_OMM_VERS = 2.0
CREATION_DATE  = 
ORIGINATOR     = 

OBJECT_NAME    = ISS OBJECT YC
OBJECT_ID      = 1998-067YC
CENTER_NAME    = EARTH
REF_FRAME      = TEME
TIME_SYSTEM    = UTC
MEAN_ELEMENT_THEORY = SGP/SGP4

EPOCH          = 2026-02-13T05:44:30.383520
MEAN_MOTION    = 15.50119870
ECCENTRICITY   = .00078146
INCLINATION    = 51.6304
RA_OF_ASC_NODE = 193.1388
ARG_OF_PERICENTER = 77.4740
MEAN_ANOMALY   = 282.7122

EPHEMERIS_TYPE = 0
CLASSIFICATION_TYPE = U
NORAD_CAT_ID   = 67686
ELEMENT_SET_NO = 999
REV_AT_EPOCH   = 99
BSTAR          = .86945206E-3
MEAN_MOTION_DOT = .49739E-3
MEAN_MOTION_DDOT = 0

CCSDS_OMM_VERS = 2.0
CREATION_DATE  = 
ORIGINATOR     = 

OBJECT_NAME    = LEOPARD
OBJECT_ID      = 1998-067YD
CENTER_NAME    = EARTH
REF_FRAME      = TEME
TIME_SYSTEM    = UTC
MEAN_ELEMENT_THEORY = SGP/SGP4

EPOCH          = 2026-02-13T05:45:30.402144
MEAN_MOTION    = 15.49922863
ECCENTRICITY   = .00078803
INCLINATION    = 51.6305
RA_OF_ASC_NODE = 193.1421
ARG_OF_PERICENTER = 79.7885
MEAN_ANOMALY   = 280.3992

EPHEMERIS_TYPE = 0
CLASSIFICATION_TYPE = U
NORAD_CAT_ID   = 67687
ELEMENT_SET_NO = 999
REV_AT_EPOCH   = 91
BSTAR          = .68900525E-3
MEAN_MOTION_DOT = .38992E-3
MEAN_MOTION_DDOT = 0

CCSDS_OMM_VERS = 2.0
CREATION_DATE  = 
ORIGINATOR     = 

OBJECT_NAME    = ISS OBJECT YE
OBJECT_ID      = 1998-067YE
CENTER_NAME    = EARTH
REF_FRAME      = TEME
TIME_SYSTEM    = UTC
MEAN_ELEMENT_THEORY = SGP/SGP4

EPOCH          = 2026-02-13T05:44:43.337472
MEAN_MOTION    = 15.50061669
ECCENTRICITY   = .0007767
INCLINATION    = 51.6307
RA_OF_ASC_NODE = 193.1391
ARG_OF_PERICENTER = 78.6015
MEAN_ANOMALY   = 281.5846

EPHEMERIS_TYPE = 0
CLASSIFICATION_TYPE = U
NORAD_CAT_ID   = 67688
ELEMENT_SET_NO = 999
REV_AT_EPOCH   = 91
BSTAR          = .77722415E-3
MEAN_MOTION_DOT = .4429E-3
MEAN_MOTION_DDOT = 0

CCSDS_OMM_VERS = 2.0
CREATION_DATE  = 
ORIGINATOR     = 

OBJECT_NAME    = PRC TEST SPACECRAFT 4
OBJECT_ID      = 2026-024A
CENTER_NAME    = EARTH
REF_FRAME      = TEME
TIME_SYSTEM    = UTC
MEAN_ELEMENT_THEORY = SGP/SGP4

EPOCH          = 2026-02-13T05:49:45.890400
MEAN_MOTION    = 14.91670688
ECCENTRICITY   = .00061867
INCLINATION    = 49.9851
RA_OF_ASC_NODE = 137.5297
ARG_OF_PERICENTER = 265.9841
MEAN_ANOMALY   = 94.0393

EPHEMERIS_TYPE = 0
CLASSIFICATION_TYPE = U
NORAD_CAT_ID   = 67689
ELEMENT_SET_NO = 999
REV_AT_EPOCH   = 93
BSTAR          = .2228476E-4
MEAN_MOTION_DOT = -.18E-6
MEAN_MOTION_DDOT = 0

CCSDS_OMM_VERS = 2.0
CREATION_DATE  = 
ORIGINATOR     = 

OBJECT_NAME    = CZ-2F R/B
OBJECT_ID      = 2026-024B
CENTER_NAME    = EARTH
REF_FRAME      = TEME
TIME_SYSTEM    = UTC
MEAN_ELEMENT_THEORY = SGP/SGP4

EPOCH          = 2026-02-12T16:27:55.437984
MEAN_MOTION    = 15.33223548
ECCENTRICITY   = .01773338
INCLINATION    = 49.9859
RA_OF_ASC_NODE = 139.9043
ARG_OF_PERICENTER = 171.2576
MEAN_ANOMALY   = 189.1542

EPHEMERIS_TYPE = 0
CLASSIFICATION_TYPE = U
NORAD_CAT_ID   = 67690
ELEMENT_SET_NO = 999
REV_AT_EPOCH   = 85
BSTAR          = .200431E-3
MEAN_MOTION_DOT = .10419E-3
MEAN_MOTION_DDOT = 0

CCSDS_OMM_VERS = 2.0
CREATION_DATE  = 
ORIGINATOR     = 

OBJECT_NAME    = CZ-2F DEB
OBJECT_ID      = 2026-024C
CENTER_NAME    = EARTH
REF_FRAME      = TEME
TIME_SYSTEM    = UTC
MEAN_ELEMENT_THEORY = SGP/SGP4

EPOCH          = 2026-02-13T05:35:59.171136
MEAN_MOTION    = 15.63527774
ECCENTRICITY   = .02644626
INCLINATION    = 49.9101
RA_OF_ASC_NODE = 135.9568
ARG_OF_PERICENTER = 179.9412
MEAN_ANOMALY   = 180.1635

EPHEMERIS_TYPE = 0
CLASSIFICATION_TYPE = U
NORAD_CAT_ID   = 67691
ELEMENT_SET_NO = 999
REV_AT_EPOCH   = 94
BSTAR          = .9562142E-3
MEAN_MOTION_DOT = .676233E-2
MEAN_MOTION_DDOT = .10260247E-4

CCSDS_OMM_VERS = 2.0
CREATION_DATE  = 
ORIGINATOR     = 

OBJECT_NAME    = CZ-2F DEB
OBJECT_ID      = 2026-024D
CENTER_NAME    = EARTH
REF_FRAME      = TEME
TIME_SYSTEM    = UTC
MEAN_ELEMENT_THEORY = SGP/SGP4

EPOCH          = 2026-02-12T11:20:23.345088
MEAN_MOTION    = 15.21014172
ECCENTRICITY   = .02444636
INCLINATION    = 50.2497
RA_OF_ASC_NODE = 141.4689
ARG_OF_PERICENTER = 185.6574
MEAN_ANOMALY   = 174.1612

EPHEMERIS_TYPE = 0
CLASSIFICATION_TYPE = U
NORAD_CAT_ID   = 67692
ELEMENT_SET_NO = 999
REV_AT_EPOCH   = 82
BSTAR          = .18236751E-3
MEAN_MOTION_DOT = .896E-4
MEAN_MOTION_DDOT = 0

CCSDS_OMM_VERS = 2.0
CREATION_DATE  = 
ORIGINATOR     = 

OBJECT_NAME    = CZ-2F DEB
OBJECT_ID      = 2026-024E
CENTER_NAME    = EARTH
REF_FRAME      = TEME
TIME_SYSTEM    = UTC
MEAN_ELEMENT_THEORY = SGP/SGP4

EPOCH          = 2026-02-13T06:54:25.118208
MEAN_MOTION    = 15.14642579
ECCENTRICITY   = .02680043
INCLINATION    = 50.3154
RA_OF_ASC_NODE = 137.7103
ARG_OF_PERICENTER = 184.1610
MEAN_ANOMALY   = 175.7117

EPHEMERIS_TYPE = 0
CLASSIFICATION_TYPE = U
NORAD_CAT_ID   = 67718
ELEMENT_SET_NO = 999
REV_AT_EPOCH   = 92
BSTAR          = .57498249E-2
MEAN_MOTION_DOT = .27987E-2
MEAN_MOTION_DDOT = 0

CCSDS_OMM_VERS = 2.0
CREATION_DATE  = 
ORIGINATOR     = 

OBJECT_NAME    = CZ-2F DEB
OBJECT_ID      = 2026-024F
CENTER_NAME    = EARTH
REF_FRAME      = TEME
TIME_SYSTEM    = UTC
MEAN_ELEMENT_THEORY = SGP/SGP4

EPOCH          = 2026-02-13T07:07:18.023232
MEAN_MOTION    = 14.95744724
ECCENTRICITY   = .03396045
INCLINATION    = 49.7902
RA_OF_ASC_NODE = 138.6266
ARG_OF_PERICENTER = 173.7875
MEAN_ANOMALY   = 186.7441

EPHEMERIS_TYPE = 0
CLASSIFICATION_TYPE = U
NORAD_CAT_ID   = 67719
ELEMENT_SET_NO = 999
REV_AT_EPOCH   = 58
BSTAR          = .54981395E-2
MEAN_MOTION_DOT = .211453E-2
MEAN_MOTION_DDOT = 0

CCSDS_OMM_VERS = 2.0
CREATION_DATE  = 
ORIGINATOR     = 

OBJECT_NAME    = CZ-2F DEB
OBJECT_ID      = 2026-024G
CENTER_NAME    = EARTH
REF_FRAME      = TEME
TIME_SYSTEM    = UTC
MEAN_ELEMENT_THEORY = SGP/SGP4

EPOCH          = 2026-02-13T05:46:42.037248
MEAN_MOTION    = 14.93053066
ECCENTRICITY   = .0350432
INCLINATION    = 49.8296
RA_OF_ASC_NODE = 138.9952
ARG_OF_PERICENTER = 170.2689
MEAN_ANOMALY   = 190.5275

EPHEMERIS_TYPE = 0
CLASSIFICATION_TYPE = U
NORAD_CAT_ID   = 67720
ELEMENT_SET_NO = 999
REV_AT_EPOCH   = 89
BSTAR          = .54462802E-2
MEAN_MOTION_DOT = .203991E-2
MEAN_MOTION_DDOT = 0

CCSDS_OMM_VERS = 2.0
CREATION_DATE  = 
ORIGINATOR     = 

OBJECT_NAME    = 2026-027A
OBJECT_ID      = 2026-027A
CENTER_NAME    = EARTH
REF_FRAME      = TEME
TIME_SYSTEM    = UTC
MEAN_ELEMENT_THEORY = SGP/SGP4

EPOCH          = 2026-02-13T07:19:05.761056
MEAN_MOTION    = 15.17225861
ECCENTRICITY   = .0009293
INCLINATION    = 97.4867
RA_OF_ASC_NODE = 173.5892
ARG_OF_PERICENTER = 286.7475
MEAN_ANOMALY   = 73.2738

EPHEMERIS_TYPE = 0
CLASSIFICATION_TYPE = U
NORAD_CAT_ID   = 67746
ELEMENT_SET_NO = 999
REV_AT_EPOCH   = 16
BSTAR          = .47527E-3
MEAN_MOTION_DOT = .9399E-4
MEAN_MOTION_DDOT = 0

